ISS DEB                 
1 47853U 98067RZ  24033.86569984  .00186141  25660-4  35895-3 0  9991
2 47853  51.6217 185.0122 0002524 302.8588  57.2178 16.00030856165266
CSS (TIANHE)            
1 48274U 21035A   24034.44928619  .00015880  00000+0  17288-3 0  9992
2 48274  41.4671 186.3681 0008562 293.5956  66.3984 15.63032030158006
ISS (NAUKA)             
1 49044U 21066A   24033.50125702  .00013598  00000+0  25060-3 0  9991
2 49044  51.6382 267.7346 0002336 192.2353 167.8579 15.49448907437505
FREGAT DEB              
1 49271U 11037PF  24033.93881504 -.00000270  00000+0 -45234-3 0  9996
2 49271  51.6634  13.3505 0967613 199.5933 156.5163 12.11427032118783
CSS (WENTIAN)           
1 53239U 22085A   24033.68254381  .00016003  00000+0  17436-3 0  9991
2 53239  41.4672 191.0500 0008690 289.6882  70.3020 15.63006320157887
CSS (MENGTIAN)          
1 54216U 22143A   24033.68254381  .00016003  00000+0  17436-3 0  9992
2 54216  41.4672 191.0500 0008690 289.6882  70.3020 15.63006320157883
ISS DEB                 
1 57212U 98067VP  24033.87460405  .00060023  00000+0  48294-3 0  9993
2 57212  51.6316 251.4503 0004915 191.2038 168.8851 15.70337886 34691
MOONLIGHTER             
1 57316U 98067VU  24033.58853844  .01226107  88516-3  16190-2 0  9998
2 57316  51.6221 242.6552 0010531 252.0404 107.9461 16.06211898 33088
PROGRESS-MS 24          
1 57691U 23125A   24033.50125702  .00013598  00000+0  25060-3 0  9996
2 57691  51.6382 267.7346 0002336 192.2353 167.8579 15.49448907437502
CREW DRAGON 7           
1 57697U 23128A   24033.50125702  .00013598  00000+0  25060-3 0  9995
2 57697  51.6382 267.7346 0002336 192.2353 167.8579 15.49448907437508
SOYUZ-MS 24             
1 57862U 23143A   24033.50125702  .00013598  00000+0  25060-3 0  9996
2 57862  51.6382 267.7346 0002336 192.2353 167.8579 15.49448907437502
SHENZHOU-17 (SZ-17)     
1 58146U 23164A   24033.68254381  .00016003  00000+0  17436-3 0  9992
2 58146  41.4672 191.0500 0008690 289.6882  70.3020 15.63006320157889
ISS DEB                 
1 58174U 98067WA  24033.88347016  .00130210  00000+0  11040-2 0  9998
2 58174  51.6337 259.7812 0006726 179.1019 180.9991 15.68726007 15639
ISS DEB                 
1 58229U 98067WC  24033.87625523  .00046838  00000+0  58747-3 0  9998
2 58229  51.6371 262.7480 0004116 159.6327 200.4831 15.59252055 14388
PROGRESS-MS 25          
1 58460U 23184A   24033.50125702  .00013598  00000+0  25060-3 0  9996
2 58460  51.6382 267.7346 0002336 192.2353 167.8579 15.49448907437507
BEAK                    
1 58612U 98067WD  24033.90253224  .00048711  00000+0  68231-3 0  9994
2 58612  51.6385 264.4236 0006132 167.2720 192.8428 15.56271711  7317
