[{"OBJECT_NAME":"ISS DEB","OBJECT_ID":"1998-067RZ","EPOCH":"2024-02-02T20:46:36.466176","MEAN_MOTION":16.00030856,"ECCENTRICITY":0.0002524,"INCLINATION":51.6217,"RA_OF_ASC_NODE":185.0122,"ARG_OF_PERICENTER":302.8588,"MEAN_ANOMALY":57.2178,"EPHEMERIS_TYPE":0,"CLASSIFICATION_TYPE":"U","NORAD_CAT_ID":47853,"ELEMENT_SET_NO":999,"REV_AT_EPOCH":16526,"BSTAR":0.00035895,"MEAN_MOTION_DOT":0.00186141,"MEAN_MOTION_DDOT":0.00002566},{"OBJECT_NAME":"CSS (TIANHE)","OBJECT_ID":"2021-035A","EPOCH":"2024-02-03T10:46:58.326816","MEAN_MOTION":15.6303203,"ECCENTRICITY":0.0008562,"INCLINATION":41.4671,"RA_OF_ASC_NODE":186.3681,"ARG_OF_PERICENTER":293.5956,"MEAN_ANOMALY":66.3984,"EPHEMERIS_TYPE":0,"CLASSIFICATION_TYPE":"U","NORAD_CAT_ID":48274,"ELEMENT_SET_NO":999,"REV_AT_EPOCH":15800,"BSTAR":0.00017288,"MEAN_MOTION_DOT":0.0001588,"MEAN_MOTION_DDOT":0},{"OBJECT_NAME":"ISS (NAUKA)","OBJECT_ID":"2021-066A","EPOCH":"2024-02-02T12:01:48.606528","MEAN_MOTION":15.49448907,"ECCENTRICITY":0.0002336,"INCLINATION":51.6382,"RA_OF_ASC_NODE":267.7346,"ARG_OF_PERICENTER":192.2353,"MEAN_ANOMALY":167.8579,"EPHEMERIS_TYPE":0,"CLASSIFICATION_TYPE":"U","NORAD_CAT_ID":49044,"ELEMENT_SET_NO":999,"REV_AT_EPOCH":43750,"BSTAR":0.0002506,"MEAN_MOTION_DOT":0.00013598,"MEAN_MOTION_DDOT":0},{"OBJECT_NAME":"FREGAT DEB","OBJECT_ID":"2011-037PF","EPOCH":"2024-02-02T22:31:53.619456","MEAN_MOTION":12.11427032,"ECCENTRICITY":0.0967613,"INCLINATION":51.6634,"RA_OF_ASC_NODE":13.3505,"ARG_OF_PERICENTER":199.5933,"MEAN_ANOMALY":156.5163,"EPHEMERIS_TYPE":0,"CLASSIFICATION_TYPE":"U","NORAD_CAT_ID":49271,"ELEMENT_SET_NO":999,"REV_AT_EPOCH":11878,"BSTAR":-0.00045234,"MEAN_MOTION_DOT":-0.0000027,"MEAN_MOTION_DDOT":0},{"OBJECT_NAME":"CSS (WENTIAN)","OBJECT_ID":"2022-085A","EPOCH":"2024-02-02T16:22:51.785184","MEAN_MOTION":15.6300632,"ECCENTRICITY":0.000869,"INCLINATION":41.4672,"RA_OF_ASC_NODE":191.05,"ARG_OF_PERICENTER":289.6882,"MEAN_ANOMALY":70.302,"EPHEMERIS_TYPE":0,"CLASSIFICATION_TYPE":"U","NORAD_CAT_ID":53239,"ELEMENT_SET_NO":999,"REV_AT_EPOCH":15788,"BSTAR":0.00017436,"MEAN_MOTION_DOT":0.00016003,"MEAN_MOTION_DDOT":0},{"OBJECT_NAME":"CSS (MENGTIAN)","OBJECT_ID":"2022-143A","EPOCH":"2024-02-02T16:22:51.785184","MEAN_MOTION":15.6300632,"ECCENTRICITY":0.000869,"INCLINATION":41.4672,"RA_OF_ASC_NODE":191.05,"ARG_OF_PERICENTER":289.6882,"MEAN_ANOMALY":70.302,"EPHEMERIS_TYPE":0,"CLASSIFICATION_TYPE":"U","NORAD_CAT_ID":54216,"ELEMENT_SET_NO":999,"REV_AT_EPOCH":15788,"BSTAR":0.00017436,"MEAN_MOTION_DOT":0.00016003,"MEAN_MOTION_DDOT":0},{"OBJECT_NAME":"ISS DEB","OBJECT_ID":"1998-067VP","EPOCH":"2024-02-02T20:59:25.789920","MEAN_MOTION":15.70337886,"ECCENTRICITY":0.0004915,"INCLINATION":51.6316,"RA_OF_ASC_NODE":251.4503,"ARG_OF_PERICENTER":191.2038,"MEAN_ANOMALY":168.8851,"EPHEMERIS_TYPE":0,"CLASSIFICATION_TYPE":"U","NORAD_CAT_ID":57212,"ELEMENT_SET_NO":999,"REV_AT_EPOCH":3469,"BSTAR":0.00048294,"MEAN_MOTION_DOT":0.00060023,"MEAN_MOTION_DDOT":0},{"OBJECT_NAME":"MOONLIGHTER","OBJECT_ID":"1998-067VU","EPOCH":"2024-02-02T14:07:29.721216","MEAN_MOTION":16.06211898,"ECCENTRICITY":0.0010531,"INCLINATION":51.6221,"RA_OF_ASC_NODE":242.6552,"ARG_OF_PERICENTER":252.0404,"MEAN_ANOMALY":107.9461,"EPHEMERIS_TYPE":0,"CLASSIFICATION_TYPE":"U","NORAD_CAT_ID":57316,"ELEMENT_SET_NO":999,"REV_AT_EPOCH":3308,"BSTAR":0.001619,"MEAN_MOTION_DOT":0.01226107,"MEAN_MOTION_DDOT":0.00088516},{"OBJECT_NAME":"PROGRESS-MS 24","OBJECT_ID":"2023-125A","EPOCH":"2024-02-02T12:01:48.606528","MEAN_MOTION":15.49448907,"ECCENTRICITY":0.0002336,"INCLINATION":51.6382,"RA_OF_ASC_NODE":267.7346,"ARG_OF_PERICENTER":192.2353,"MEAN_ANOMALY":167.8579,"EPHEMERIS_TYPE":0,"CLASSIFICATION_TYPE":"U","NORAD_CAT_ID":57691,"ELEMENT_SET_NO":999,"REV_AT_EPOCH":43750,"BSTAR":0.0002506,"MEAN_MOTION_DOT":0.00013598,"MEAN_MOTION_DDOT":0},{"OBJECT_NAME":"CREW DRAGON 7","OBJECT_ID":"2023-128A","EPOCH":"2024-02-02T12:01:48.606528","MEAN_MOTION":15.49448907,"ECCENTRICITY":0.0002336,"INCLINATION":51.6382,"RA_OF_ASC_NODE":267.7346,"ARG_OF_PERICENTER":192.2353,"MEAN_ANOMALY":167.8579,"EPHEMERIS_TYPE":0,"CLASSIFICATION_TYPE":"U","NORAD_CAT_ID":57697,"ELEMENT_SET_NO":999,"REV_AT_EPOCH":43750,"BSTAR":0.0002506,"MEAN_MOTION_DOT":0.00013598,"MEAN_MOTION_DDOT":0},{"OBJECT_NAME":"SOYUZ-MS 24","OBJECT_ID":"2023-143A","EPOCH":"2024-02-02T12:01:48.606528","MEAN_MOTION":15.49448907,"ECCENTRICITY":0.0002336,"INCLINATION":51.6382,"RA_OF_ASC_NODE":267.7346,"ARG_OF_PERICENTER":192.2353,"MEAN_ANOMALY":167.8579,"EPHEMERIS_TYPE":0,"CLASSIFICATION_TYPE":"U","NORAD_CAT_ID":57862,"ELEMENT_SET_NO":999,"REV_AT_EPOCH":43750,"BSTAR":0.0002506,"MEAN_MOTION_DOT":0.00013598,"MEAN_MOTION_DDOT":0},{"OBJECT_NAME":"SHENZHOU-17 (SZ-17)","OBJECT_ID":"2023-164A","EPOCH":"2024-02-02T16:22:51.785184","MEAN_MOTION":15.6300632,"ECCENTRICITY":0.000869,"INCLINATION":41.4672,"RA_OF_ASC_NODE":191.05,"ARG_OF_PERICENTER":289.6882,"MEAN_ANOMALY":70.302,"EPHEMERIS_TYPE":0,"CLASSIFICATION_TYPE":"U","NORAD_CAT_ID":58146,"ELEMENT_SET_NO":999,"REV_AT_EPOCH":15788,"BSTAR":0.00017436,"MEAN_MOTION_DOT":0.00016003,"MEAN_MOTION_DDOT":0},{"OBJECT_NAME":"ISS DEB","OBJECT_ID":"1998-067WA","EPOCH":"2024-02-02T21:12:11.821824","MEAN_MOTION":15.68726007,"ECCENTRICITY":0.0006726,"INCLINATION":51.6337,"RA_OF_ASC_NODE":259.7812,"ARG_OF_PERICENTER":179.1019,"MEAN_ANOMALY":180.9991,"EPHEMERIS_TYPE":0,"CLASSIFICATION_TYPE":"U","NORAD_CAT_ID":58174,"ELEMENT_SET_NO":999,"REV_AT_EPOCH":1563,"BSTAR":0.001104,"MEAN_MOTION_DOT":0.0013021,"MEAN_MOTION_DDOT":0},{"OBJECT_NAME":"ISS DEB","OBJECT_ID":"1998-067WC","EPOCH":"2024-02-02T21:01:48.451872","MEAN_MOTION":15.59252055,"ECCENTRICITY":0.0004116,"INCLINATION":51.6371,"RA_OF_ASC_NODE":262.748,"ARG_OF_PERICENTER":159.6327,"MEAN_ANOMALY":200.4831,"EPHEMERIS_TYPE":0,"CLASSIFICATION_TYPE":"U","NORAD_CAT_ID":58229,"ELEMENT_SET_NO":999,"REV_AT_EPOCH":1438,"BSTAR":0.00058747,"MEAN_MOTION_DOT":0.00046838,"MEAN_MOTION_DDOT":0},{"OBJECT_NAME":"PROGRESS-MS 25","OBJECT_ID":"2023-184A","EPOCH":"2024-02-02T12:01:48.606528","MEAN_MOTION":15.49448907,"ECCENTRICITY":0.0002336,"INCLINATION":51.6382,"RA_OF_ASC_NODE":267.7346,"ARG_OF_PERICENTER":192.2353,"MEAN_ANOMALY":167.8579,"EPHEMERIS_TYPE":0,"CLASSIFICATION_TYPE":"U","NORAD_CAT_ID":58460,"ELEMENT_SET_NO":999,"REV_AT_EPOCH":43750,"BSTAR":0.0002506,"MEAN_MOTION_DOT":0.00013598,"MEAN_MOTION_DDOT":0},{"OBJECT_NAME":"BEAK","OBJECT_ID":"1998-067WD","EPOCH":"2024-02-02T21:39:38.785536","MEAN_MOTION":15.56271711,"ECCENTRICITY":0.0006132,"INCLINATION":51.6385,"RA_OF_ASC_NODE":264.4236,"ARG_OF_PERICENTER":167.272,"MEAN_ANOMALY":192.8428,"EPHEMERIS_TYPE":0,"CLASSIFICATION_TYPE":"U","NORAD_CAT_ID":58612,"ELEMENT_SET_NO":999,"REV_AT_EPOCH":731,"BSTAR":0.00068231,"MEAN_MOTION_DOT":0.00048711,"MEAN_MOTION_DDOT":0}]